{"type": "FeatureCollection", "features": [ {"type": "Feature", "properties": {"norad_id": 66806, "name": "STARLINK-36069", "group": "last-30-days", "lat": 40.40630037810606, "lon": -69.78057308937625, "alt_km": 339.2641559692047, "timestamp": "2025-12-17T07:00:45.612763+00:00", "meta": {"OBJECT_NAME": "STARLINK-36069", "OBJECT_ID": "2025-278R", "EPOCH": "2025-12-16T22:00:03.000096", "MEAN_MOTION": 15.75002347, "ECCENTRICITY": 0.00019902, "INCLINATION": 42.9987, "RA_OF_ASC_NODE": 226.4947, "ARG_OF_PERICENTER": 275.0015, "MEAN_ANOMALY": 185.2927, "EPHEMERIS_TYPE": 0, "CLASSIFICATION_TYPE": "U", "NORAD_CAT_ID": 66806, "ELEMENT_SET_NO": 999, "REV_AT_EPOCH": 342, "BSTAR": 0.0003333949, "MEAN_MOTION_DOT": 0.00050964, "MEAN_MOTION_DDOT": 0}, "tle": {"line1": "1 66806U 25278R   25350.91670139  .00050964  00000+0  33339-3 0  9998", "line2": "2 66806  42.9987 226.4947 0001990 275.0015 185.2927 15.75002347  3427"}}, "geometry": {"type": "Point", "coordinates": [-69.78057308937625, 40.40630037810606]}}, {"type": "Feature", "properties": {"norad_id": 66807, "name": "STARLINK-36000", "group": "last-30-days", "lat": 41.763624685364505, "lon": -62.396933708282944, "alt_km": 338.81135257870756, "timestamp": "2025-12-17T07:00:45.612775+00:00", "meta": {"OBJECT_NAME": "STARLINK-36000", "OBJECT_ID": "2025-278S", "EPOCH": "2025-12-16T22:00:03.000096", "MEAN_MOTION": 15.75001468, "ECCENTRICITY": 0.00014745, "INCLINATION": 42.9986, "RA_OF_ASC_NODE": 226.4801, "ARG_OF_PERICENTER": 260.0836, "MEAN_ANOMALY": 205.9437, "EPHEMERIS_TYPE": 0, "CLASSIFICATION_TYPE": "U", "NORAD_CAT_ID": 66807, "ELEMENT_SET_NO": 999, "REV_AT_EPOCH": 368, "BSTAR": 0.000406348, "MEAN_MOTION_DOT": 0.000623, "MEAN_MOTION_DDOT": 0}, "tle": {"line1": "1 66807U 25278S   25350.91670139  .00062300  00000+0  40635-3 0  9993", "line2": "2 66807  42.9986 226.4801 0001474 260.0836 205.9437 15.75001468  3685"}}, "geometry": {"type": "Point", "coordinates": [-62.396933708282944, 41.763624685364505]}}, {"type": "Feature", "properties": {"norad_id": 66808, "name": "STARLINK-36071", "group": "last-30-days", "lat": 42.113153659798314, "lon": -59.83566527275335, "alt_km": 338.94256053048684, "timestamp": "2025-12-17T07:00:45.612785+00:00", "meta": {"OBJECT_NAME": "STARLINK-36071", "OBJECT_ID": "2025-278T", "EPOCH": "2025-12-16T22:00:03.000096", "MEAN_MOTION": 15.75046481, "ECCENTRICITY": 0.00016469, "INCLINATION": 42.9987, "RA_OF_ASC_NODE": 226.4753, "ARG_OF_PERICENTER": 260.382, "MEAN_ANOMALY": 207.5661, "EPHEMERIS_TYPE": 0, "CLASSIFICATION_TYPE": "U", "NORAD_CAT_ID": 66808, "ELEMENT_SET_NO": 999, "REV_AT_EPOCH": 363, "BSTAR": -0.00015232025, "MEAN_MOTION_DOT": -0.00023817, "MEAN_MOTION_DDOT": 0}, "tle": {"line1": "1 66808U 25278T   25350.91670139 -.00023817  00000+0 -15232-3 0  9991", "line2": "2 66808  42.9987 226.4753 0001646 260.3820 207.5661 15.75046481  3636"}}, "geometry": {"type": "Point", "coordinates": [-59.83566527275335, 42.113153659798314]}}, {"type": "Feature", "properties": {"norad_id": 66809, "name": "STARLINK-35979", "group": "last-30-days", "lat": 42.80503606358166, "lon": -52.107376980247416, "alt_km": 338.9801322157318, "timestamp": "2025-12-17T07:00:45.612797+00:00", "meta": {"OBJECT_NAME": "STARLINK-35979", "OBJECT_ID": "2025-278U", "EPOCH": "2025-12-16T22:00:03.000096", "MEAN_MOTION": 15.75018572, "ECCENTRICITY": 0.00019044, "INCLINATION": 42.9984, "RA_OF_ASC_NODE": 226.4609, "ARG_OF_PERICENTER": 270.7152, "MEAN_ANOMALY": 202.9906, "EPHEMERIS_TYPE": 0, "CLASSIFICATION_TYPE": "U", "NORAD_CAT_ID": 66809, "ELEMENT_SET_NO": 999, "REV_AT_EPOCH": 363, "BSTAR": 0.00012996809, "MEAN_MOTION_DOT": 0.00019515, "MEAN_MOTION_DDOT": 0}, "tle": {"line1": "1 66809U 25278U   25350.91670139  .00019515  00000+0  12997-3 0  9995", "line2": "2 66809  42.9984 226.4609 0001904 270.7152 202.9906 15.75018572  3635"}}, "geometry": {"type": "Point", "coordinates": [-52.107376980247416, 42.80503606358166]}}, {"type": "Feature", "properties": {"norad_id": 66810, "name": "STARLINK-36046", "group": "last-30-days", "lat": 42.40178271462532, "lon": -57.276995252524976, "alt_km": 338.9317780629608, "timestamp": "2025-12-17T07:00:45.612808+00:00", "meta": {"OBJECT_NAME": "STARLINK-36046", "OBJECT_ID": "2025-278V", "EPOCH": "2025-12-16T22:00:03.000096", "MEAN_MOTION": 15.75023685, "ECCENTRICITY": 0.00017714, "INCLINATION": 42.9986, "RA_OF_ASC_NODE": 226.4708, "ARG_OF_PERICENTER": 269.5749, "MEAN_ANOMALY": 200.296, "EPHEMERIS_TYPE": 0, "CLASSIFICATION_TYPE": "U", "NORAD_CAT_ID": 66810, "ELEMENT_SET_NO": 999, "REV_AT_EPOCH": 340, "BSTAR": 0.00012423692, "MEAN_MOTION_DOT": 0.00018636, "MEAN_MOTION_DDOT": 0}, "tle": {"line1": "1 66810U 25278V   25350.91670139  .00018636  00000+0  12424-3 0  9995", "line2": "2 66810  42.9986 226.4708 0001771 269.5749 200.2960 15.75023685  3406"}}, "geometry": {"type": "Point", "coordinates": [-57.276995252524976, 42.40178271462532]}}, {"type": "Feature", "properties": {"norad_id": 66811, "name": "STARLINK-36045", "group": "last-30-days", "lat": 42.63268770690167, "lon": -54.69691880018993, "alt_km": 338.66809985992404, "timestamp": "2025-12-17T07:00:45.612818+00:00", "meta": {"OBJECT_NAME": "STARLINK-36045", "OBJECT_ID": "2025-278W", "EPOCH": "2025-12-16T22:00:03.000096", "MEAN_MOTION": 15.75026047, "ECCENTRICITY": 0.00014448, "INCLINATION": 42.9983, "RA_OF_ASC_NODE": 226.4656, "ARG_OF_PERICENTER": 277.8915, "MEAN_ANOMALY": 193.8963, "EPHEMERIS_TYPE": 0, "CLASSIFICATION_TYPE": "U", "NORAD_CAT_ID": 66811, "ELEMENT_SET_NO": 999, "REV_AT_EPOCH": 363, "BSTAR": 6.6444891e-05, "MEAN_MOTION_DOT": 9.735e-05, "MEAN_MOTION_DDOT": 0}, "tle": {"line1": "1 66811U 25278W   25350.91670139  .00009735  00000+0  66445-4 0  9999", "line2": "2 66811  42.9983 226.4656 0001444 277.8915 193.8963 15.75026047  3630"}}, "geometry": {"type": "Point", "coordinates": [-54.69691880018993, 42.63268770690167]}}, {"type": "Feature", "properties": {"norad_id": 66812, "name": "STARLINK-36054", "group": "last-30-days", "lat": 42.91891311411212, "lon": -49.49152390907666, "alt_km": 339.0084166439674, "timestamp": "2025-12-17T07:00:45.612828+00:00", "meta": {"OBJECT_NAME": "STARLINK-36054", "OBJECT_ID": "2025-278X", "EPOCH": "2025-12-16T22:00:03.000096", "MEAN_MOTION": 15.75026586, "ECCENTRICITY": 0.00019584, "INCLINATION": 42.9984, "RA_OF_ASC_NODE": 226.4557, "ARG_OF_PERICENTER": 266.7564, "MEAN_ANOMALY": 208.8672, "EPHEMERIS_TYPE": 0, "CLASSIFICATION_TYPE": "U", "NORAD_CAT_ID": 66812, "ELEMENT_SET_NO": 999, "REV_AT_EPOCH": 363, "BSTAR": 7.0583838e-05, "MEAN_MOTION_DOT": 0.00010372, "MEAN_MOTION_DDOT": 0}, "tle": {"line1": "1 66812U 25278X   25350.91670139  .00010372  00000+0  70584-4 0  9998", "line2": "2 66812  42.9984 226.4557 0001958 266.7564 208.8672 15.75026586  3631"}}, "geometry": {"type": "Point", "coordinates": [-49.49152390907666, 42.91891311411212]}}, {"type": "Feature", "properties": {"norad_id": 66813, "name": "STARLINK-36042", "group": "last-30-days", "lat": 42.972969991410494, "lon": -46.873505591805554, "alt_km": 338.8951520201972, "timestamp": "2025-12-17T07:00:45.612838+00:00", "meta": {"OBJECT_NAME": "STARLINK-36042", "OBJECT_ID": "2025-278Y", "EPOCH": "2025-12-16T22:00:03.000096", "MEAN_MOTION": 15.75022166, "ECCENTRICITY": 0.00018444, "INCLINATION": 42.9986, "RA_OF_ASC_NODE": 226.4504, "ARG_OF_PERICENTER": 277.1176, "MEAN_ANOMALY": 200.4225, "EPHEMERIS_TYPE": 0, "CLASSIFICATION_TYPE": "U", "NORAD_CAT_ID": 66813, "ELEMENT_SET_NO": 999, "REV_AT_EPOCH": 363, "BSTAR": 0.00013108298, "MEAN_MOTION_DOT": 0.0001969, "MEAN_MOTION_DDOT": 0}, "tle": {"line1": "1 66813U 25278Y   25350.91670139  .00019690  00000+0  13108-3 0  9999", "line2": "2 66813  42.9986 226.4504 0001844 277.1176 200.4225 15.75022166  3637"}}, "geometry": {"type": "Point", "coordinates": [-46.873505591805554, 42.972969991410494]}}, {"type": "Feature", "properties": {"norad_id": 66814, "name": "STARLINK-35984", "group": "last-30-days", "lat": 42.04877344892863, "lon": -31.317358069131515, "alt_km": 339.0827887613668, "timestamp": "2025-12-17T07:00:45.612848+00:00", "meta": {"OBJECT_NAME": "STARLINK-35984", "OBJECT_ID": "2025-278Z", "EPOCH": "2025-12-16T22:00:03.000096", "MEAN_MOTION": 15.75021237, "ECCENTRICITY": 0.00018869, "INCLINATION": 42.9986, "RA_OF_ASC_NODE": 226.4215, "ARG_OF_PERICENTER": 269.7272, "MEAN_ANOMALY": 219.3159, "EPHEMERIS_TYPE": 0, "CLASSIFICATION_TYPE": "U", "NORAD_CAT_ID": 66814, "ELEMENT_SET_NO": 999, "REV_AT_EPOCH": 371, "BSTAR": 0.00010763925, "MEAN_MOTION_DOT": 0.00016076, "MEAN_MOTION_DDOT": 0}, "tle": {"line1": "1 66814U 25278Z   25350.91670139  .00016076  00000+0  10764-3 0  9990", "line2": "2 66814  42.9986 226.4215 0001886 269.7272 219.3159 15.75021237  3719"}}, "geometry": {"type": "Point", "coordinates": [-31.317358069131515, 42.04877344892863]}}, {"type": "Feature", "properties": {"norad_id": 66815, "name": "STARLINK-35985", "group": "last-30-days", "lat": 42.34919986961558, "lon": -33.87386094131668, "alt_km": 339.04346578814784, "timestamp": "2025-12-17T07:00:45.612863+00:00", "meta": {"OBJECT_NAME": "STARLINK-35985", "OBJECT_ID": "2025-278AA", "EPOCH": "2025-12-16T22:00:03.000096", "MEAN_MOTION": 15.75029854, "ECCENTRICITY": 0.00018523, "INCLINATION": 42.9987, "RA_OF_ASC_NODE": 226.4258, "ARG_OF_PERICENTER": 269.5142, "MEAN_ANOMALY": 217.6095, "EPHEMERIS_TYPE": 0, "CLASSIFICATION_TYPE": "U", "NORAD_CAT_ID": 66815, "ELEMENT_SET_NO": 999, "REV_AT_EPOCH": 371, "BSTAR": -3.2330092e-05, "MEAN_MOTION_DOT": -5.439e-05, "MEAN_MOTION_DDOT": 0}, "tle": {"line1": "1 66815U 25278AA  25350.91670139 -.00005439  00000+0 -32330-4 0  9998", "line2": "2 66815  42.9987 226.4258 0001852 269.5142 217.6095 15.75029854  3718"}}, "geometry": {"type": "Point", "coordinates": [-33.87386094131668, 42.34919986961558]}}]}